     2.11           N: GPS NAV DATA                         RINEX VERSION / TYPE
teqc  2019Feb25                         20221121 12:25:24UTCPGM / RUN BY / DATE
OSX ker:10.11.6|Core i5|gcc 4.3 -m64|OSX ker:10.10+|=+      COMMENT
    4.6566D-09  1.4901D-08 -5.9605D-08 -1.1921D-07          ION ALPHA
    7.9872D+04  8.1920D+04 -6.5536D+04 -4.5875D+05          ION BETA
    6.519258022308D-09 1.776356839400D-14   319488     1541 DELTA-UTC: A0,A1,T,W
                                                            END OF HEADER
21 09  7 20  8  0  0.0 1.711305230856D-06-2.160049916711D-12 0.000000000000D+00
    1.900000000000D+01-2.365625000000D+01 5.561303079167D-09-2.586581975670D+00
   -1.480802893639D-06 1.551167317666D-02 7.063150405884D-06 5.153592552185D+03
    1.152000000000D+05 2.980232238770D-08-1.380044966744D+00-3.669410943985D-07
    9.333250514547D-01 2.313125000000D+02-2.577788770084D+00-8.271058808513D-09
   -3.593006806013D-10 1.000000000000D+00 1.541000000000D+03 0.000000000000D+00
    2.000000000000D+00 0.000000000000D+00-1.210719347000D-08 1.900000000000D+01
    1.131420000000D+05 4.000000000000D+00
15 09  7 20  7 59 44.0-3.095124848187D-04-2.387423592154D-12 0.000000000000D+00
    2.800000000000D+01 1.288437500000D+02 4.740197448250D-09 7.635816075646D-01
    6.508082151413D-06 1.493522897363D-03 2.721324563026D-06 5.153639192581D+03
    1.151840000000D+05-4.842877388000D-08 6.816604977587D-01 1.490116119385D-08
    9.562361757607D-01 3.201250000000D+02-4.908481369494D-01-8.399992750558D-09
    5.535944880039D-11 1.000000000000D+00 1.541000000000D+03 0.000000000000D+00
    2.000000000000D+00 0.000000000000D+00-9.778887033463D-09 2.800000000000D+01
    1.145220000000D+05 4.000000000000D+00
10 09  7 20 10  0  0.0-1.955963671207D-05-6.821210263297D-13 0.000000000000D+00
    1.010000000000D+02 1.123125000000D+02 4.438399162855D-09 2.080293962857D+00
    5.790963768959D-06 8.560121408664D-03 1.239776611328D-05 5.153644222260D+03
    1.224000000000D+05-2.775341272354D-07-3.265518670646D-01-5.401670932770D-08
    9.578371113832D-01 1.390937500000D+02 6.269623608932D-01-7.743893992840D-09
   -3.253706958526D-10 1.000000000000D+00 1.541000000000D+03 0.000000000000D+00
    2.800000000000D+00 0.000000000000D+00-2.793967723846D-09 1.010000000000D+02
    1.152180000000D+05 4.000000000000D+00
24 09  7 20 10  0  0.0 2.058227546513D-04 2.955857780762D-12 0.000000000000D+00
    6.200000000000D+01-1.393750000000D+01 5.120927592903D-09-2.903375662736D+00
   -5.830079317093D-07 6.610239972360D-03 6.766989827156D-06 5.153662254333D+03
    1.224000000000D+05-8.195638656616D-08-1.347043206991D+00 6.891787052155D-08
    9.499629694507D-01 2.414375000000D+02-6.495221390899D-01-8.045692278235D-09
   -3.896590880079D-10 1.000000000000D+00 1.541000000000D+03 0.000000000000D+00
    2.000000000000D+00 0.000000000000D+00-1.396983861923D-09 6.200000000000D+01
    1.152180000000D+05 4.000000000000D+00
 7 09  7 20 10  0  0.0 1.491373404860D-05-6.821210263297D-13 0.000000000000D+00
    8.100000000000D+01-1.173125000000D+02 4.404112020372D-09-5.767346763885D-01
   -6.165355443954D-06 2.852524048649D-03 1.721084117889D-06 5.153662708282D+03
    1.224000000000D+05 7.450580596924D-09 1.744578767543D+00-7.636845111847D-08
    9.678409636038D-01 3.530937500000D+02 2.884563602704D+00-8.319632260364D-09
   -4.157316026042D-10 1.000000000000D+00 1.541000000000D+03 0.000000000000D+00
    2.000000000000D+00 0.000000000000D+00-1.071020960808D-08 8.100000000000D+01
    1.152180000000D+05 4.000000000000D+00
29 09  7 20 10  0  0.0 4.112767055631D-05 3.410605131648D-12 0.000000000000D+00
    2.100000000000D+01 1.546875000000D+01 4.615192241282D-09-1.554289941226D+00
    9.723007678986D-07 3.333133645356D-03 7.767230272293D-06 5.153638582230D+03
    1.224000000000D+05-7.450580596924D-09-2.418906882895D+00 3.911554813385D-08
    9.600019287794D-01 2.302187500000D+02-1.296270487486D+00-7.929616014621D-09
    7.428880871279D-10 1.000000000000D+00 1.541000000000D+03 0.000000000000D+00
    2.000000000000D+00 0.000000000000D+00-8.847564458847D-09 2.100000000000D+01
    1.152180000000D+05 4.000000000000D+00
25 09  7 20 10  0  0.0 5.166199989617D-04 1.716671249596D-11 0.000000000000D+00
    1.200000000000D+01-9.781250000000D+01 4.344466678761D-09-2.399759390377D+00
   -5.025416612625D-06 1.128720212728D-02 7.320195436478D-07 5.153647893906D+03
    1.224000000000D+05 6.891787052155D-08 1.650131058879D+00 1.341104507446D-07
    9.700187307508D-01 3.715312500000D+02-1.209251977147D+00-8.145696443810D-09
   -3.832302487924D-10 1.000000000000D+00 1.541000000000D+03 0.000000000000D+00
    2.000000000000D+00 0.000000000000D+00-7.450580596924D-09 1.200000000000D+01
    1.152180000000D+05 4.000000000000D+00
 2 09  7 20 10  0  0.0 1.608640886843D-04 1.818989403546D-12 0.000000000000D+00
    8.000000000000D+01-1.100000000000D+01 5.428797559780D-09 1.091801564043D+00
   -6.202608346939D-07 9.065920952708D-03 6.267800927162D-06 5.153671314240D+03
    1.224000000000D+05 1.639127731323D-07-1.411217717557D+00 1.173466444016D-07
    9.405783982485D-01 2.494062500000D+02 2.867165115061D+00-8.241414716575D-09
   -4.293035965037D-10 1.000000000000D+00 1.541000000000D+03 0.000000000000D+00
    2.000000000000D+00 0.000000000000D+00-1.722946763039D-08 8.000000000000D+01
    1.152180000000D+05 4.000000000000D+00
16 09  7 20 10  0  0.0 3.105867654085D-05-3.637978807092D-12 0.000000000000D+00
    1.070000000000D+02-1.083437500000D+02 3.829088068316D-09-3.019378069285D+00
   -5.615875124931D-06 5.344968289137D-03 1.134537160397D-05 5.153594240189D+03
    1.224000000000D+05 3.725290298462D-09 2.814090583197D+00 3.166496753693D-08
    9.693422174514D-01 1.658750000000D+02-3.079883509625D-01-7.584601643388D-09
    2.021512775550D-10 1.000000000000D+00 1.541000000000D+03 0.000000000000D+00
    2.000000000000D+00 0.000000000000D+00-9.778887033463D-09 1.070000000000D+02
    1.152180000000D+05 4.000000000000D+00
13 09  7 20  9 59 44.0 3.017433919013D-04 6.821210263297D-13 0.000000000000D+00
    1.300000000000D+01 1.145625000000D+02 3.909448558510D-09 1.692279531058D+00
    5.664303898811D-06 4.123766208068D-03 1.721084117889D-06 5.153680282593D+03
    1.223840000000D+05 3.166496753693D-08 7.555982061325D-01-1.434236764908D-07
    9.947597198038D-01 3.609375000000D+02 1.628733244329D+00-7.999618930524D-09
    1.325055193867D-10 1.000000000000D+00 1.541000000000D+03 0.000000000000D+00
    2.000000000000D+00 0.000000000000D+00-1.117587089539D-08 1.300000000000D+01
    1.152180000000D+05 4.000000000000D+00
 8 09  7 20 10  0  0.0-2.127545885742D-04-1.705302565824D-12 0.000000000000D+00
    5.800000000000D+01-1.313750000000D+02 3.857303529318D-09-1.297717914726D+00
   -6.824731826782D-06 1.073028333485D-02 2.592802047729D-06 5.153640233994D+03
    1.224000000000D+05-8.754432201386D-08 1.806073361405D+00-1.229345798492D-07
    9.890721854323D-01 3.428750000000D+02 2.999434959991D+00-8.073550581502D-09
   -2.814402945465D-10 1.000000000000D+00 1.541000000000D+03 0.000000000000D+00
    2.800000000000D+00 0.000000000000D+00-3.725290298462D-09 5.800000000000D+01
    1.152180000000D+05 4.000000000000D+00
21 09  7 20 10  0  0.0 1.695007085800D-06-2.160049916711D-12 0.000000000000D+00
    2.300000000000D+01-2.125000000000D+01 5.525230148013D-09-1.536479741623D+00
   -1.281499862671D-06 1.551281113643D-02 5.671754479408D-06 5.153588027954D+03
    1.224000000000D+05 1.844018697739D-07-1.380105592995D+00-1.508742570877D-07
    9.333232740092D-01 2.482500000000D+02-2.577651195804D+00-8.311060474743D-09
   -1.914365455291D-10 1.000000000000D+00 1.541000000000D+03 0.000000000000D+00
    2.000000000000D+00 0.000000000000D+00-1.210719347000D-08 2.300000000000D+01
    1.152180000000D+05 4.000000000000D+00
15 09  7 20 10  0  0.0-3.095297142863D-04-2.387423592154D-12 0.000000000000D+00
    2.900000000000D+01 1.442812500000D+02 4.826272462192D-09 1.814792976360D+00
    7.642433047295D-06 1.494362251833D-03 2.544373273849D-06 5.153643217087D+03
    1.224000000000D+05 8.195638656616D-08 6.815988503909D-01-7.450580596924D-08
    9.562365224723D-01 3.235312500000D+02-4.895230038094D-01-8.509283017222D-09
    1.542921411727D-10 1.000000000000D+00 1.541000000000D+03 0.000000000000D+00
    2.000000000000D+00 0.000000000000D+00-9.778887033463D-09 2.900000000000D+01
    1.152180000000D+05 4.000000000000D+00
 6 09  7 20 10  0  0.0 1.975051127374D-04 1.057287590811D-11 0.000000000000D+00
    3.200000000000D+01 2.375000000000D+01 5.225574809023D-09-3.094741859460D+00
    1.097097992897D-06 5.966317723505D-03 7.674098014832D-06 5.153695493698D+03
    1.224000000000D+05 8.381903171539D-08-2.491872258379D+00 6.332993507385D-08
    9.339211320553D-01 2.136875000000D+02-1.307291097030D+00-8.187126740977D-09
    6.989576858217D-10 1.000000000000D+00 1.541000000000D+03 0.000000000000D+00
    2.000000000000D+00 0.000000000000D+00-4.656612873077D-09 3.200000000000D+01
    1.172820000000D+05 4.000000000000D+00
 3 09  7 20 10  0  0.0 4.225075244904D-04 5.115907697473D-12 0.000000000000D+00
    8.700000000000D+01 2.325000000000D+01 5.426654613375D-09 8.000733368716D-01
    1.206994056702D-06 1.209912041668D-02 8.311122655869D-06 5.153637329102D+03
    1.224000000000D+05-1.750886440277D-07-2.559895334830D+00 7.450580596924D-08
    9.265197321001D-01 2.026875000000D+02 9.145230650765D-01-8.515711856437D-09
    5.853815263474D-10 1.000000000000D+00 1.541000000000D+03 0.000000000000D+00
    2.000000000000D+00 0.000000000000D+00-4.190951585770D-09 8.700000000000D+01
    1.186020000000D+05 4.000000000000D+00
